HAWK-7A                 
1 56191U 23054P   26068.68910991  .00007758  00000+0  30248-3 0  9997
2 56191  97.2827 318.5579 0004249  51.2619 308.8999 15.26207271161849
STARLINK-36516          
1 67455U 26008L   26068.42242699  .00025226  00000+0  92264-3 0  9995
2 67455  42.9992 206.5347 0002006 299.4788  60.5863 15.27594547  9530
